SAR-LUPE 2              
1 31797U 07030A   26184.60150832  .00045845  00000+0  74179-3 0  9999
2 31797  98.1066 291.1001 0003293 224.1014 135.9975 15.52692613 59489
SARAL                   
1 39086U 13009A   26183.82262138 -.00000055  00000+0 -42260-5 0  9991
2 39086  98.5552  10.1920 0000957 206.8269 153.2866 14.32893194697848
SAOCOM 1A               
1 43641U 18076A   26184.67612571  .00000636  00000+0  86410-4 0  9993
2 43641  97.8879  11.1843 0001526  80.9296 279.2090 14.82160905418541
SAUDISAT 5A             
1 43831U 18102A   26184.60075510  .00006142  00000+0  22565-3 0  9991
2 43831  97.3055 245.8663 0011190  79.5341 280.7159 15.28220168418184
SAUDISAT 5B             
1 43833U 18102C   26184.68235370  .00005952  00000+0  21706-3 0  9997
2 43833  97.3164 249.0460 0011920  80.9742 279.2846 15.28469608418315
RISAT-2B                
1 44233U 19028A   26184.64165815  .00004279  00000+0  32824-3 0  9996
2 44233  36.9967 256.4952 0004675 184.9414 175.1283 15.01758836390300
RISAT-2BR1              
1 44857U 19089F   26184.64361543  .00003582  00000+0  27539-3 0  9994
2 44857  36.9612  13.9588 0013219 304.8722  55.0778 15.01752397359675
SAOCOM 1B               
1 46265U 20059A   26184.63982992  .00000048  00000+0  12647-4 0  9993
2 46265  97.8884  10.2442 0001587  79.7812 280.3580 14.82150655315920
RISAT-2BR2              
1 46905U 20081A   26183.24263752  .00002713  00000+0  21040-3 0  9998
2 46905  36.8976 134.8638 0012428 280.9521  78.9822 15.01687266309732
RESURS-P 4              
1 59371U 24061A   26184.65571854  .00003631  00000+0  11916-3 0  9993
2 59371  97.2759 132.2687 0003089 106.4760 253.6822 15.32227301126282
