{
 "generated_at": "2026-07-04T07:46:40Z",
 "sources": [
  {
   "name": "CelesTrak",
   "url": "https://celestrak.org/NORAD/elements/",
   "license": "frei verfügbar; Attribution. Ursprünglich USSPACECOM/Space-Track."
  },
  {
   "name": "GCAT (J. McDowell, planet4589.org)",
   "url": "https://planet4589.org/space/gcat/",
   "license": "CC-BY 4.0"
  }
 ],
 "satellites": [
  {
   "norad": 59371,
   "name": "RESURS-P 4",
   "intl": "2024-061A",
   "group": "resource",
   "gcat": {
    "class": "C",
    "category": "IMG",
    "owner": "TSSKBP?",
    "state": "RU"
   },
   "omm": {
    "OBJECT_NAME": "RESURS-P 4",
    "OBJECT_ID": "2024-061A",
    "EPOCH": "2026-07-03T15:44:14.081856",
    "MEAN_MOTION": 15.32227301,
    "ECCENTRICITY": 0.00030899,
    "INCLINATION": 97.2759,
    "RA_OF_ASC_NODE": 132.2687,
    "ARG_OF_PERICENTER": 106.476,
    "MEAN_ANOMALY": 253.6822,
    "EPHEMERIS_TYPE": 0,
    "CLASSIFICATION_TYPE": "U",
    "NORAD_CAT_ID": 59371,
    "ELEMENT_SET_NO": 999,
    "REV_AT_EPOCH": 12628,
    "BSTAR": 0.00011916349,
    "MEAN_MOTION_DOT": 0.00003631,
    "MEAN_MOTION_DDOT": 0
   }
  },
  {
   "norad": 44233,
   "name": "RISAT-2B",
   "intl": "2019-028A",
   "group": "sar",
   "gcat": {
    "class": "C",
    "category": "IMG-R",
    "owner": "ISRO",
    "state": "IN"
   },
   "omm": {
    "OBJECT_NAME": "RISAT-2B",
    "OBJECT_ID": "2019-028A",
    "EPOCH": "2026-07-03T15:23:59.264160",
    "MEAN_MOTION": 15.01758836,
    "ECCENTRICITY": 0.00046752,
    "INCLINATION": 36.9967,
    "RA_OF_ASC_NODE": 256.4952,
    "ARG_OF_PERICENTER": 184.9414,
    "MEAN_ANOMALY": 175.1283,
    "EPHEMERIS_TYPE": 0,
    "CLASSIFICATION_TYPE": "U",
    "NORAD_CAT_ID": 44233,
    "ELEMENT_SET_NO": 999,
    "REV_AT_EPOCH": 39030,
    "BSTAR": 0.00032823507,
    "MEAN_MOTION_DOT": 0.00004279,
    "MEAN_MOTION_DDOT": 0
   }
  },
  {
   "norad": 44857,
   "name": "RISAT-2BR1",
   "intl": "2019-089F",
   "group": "sar",
   "gcat": {
    "class": "C",
    "category": "IMG-R",
    "owner": "ISRO",
    "state": "IN"
   },
   "omm": {
    "OBJECT_NAME": "RISAT-2BR1",
    "OBJECT_ID": "2019-089F",
    "EPOCH": "2026-07-03T15:26:48.373152",
    "MEAN_MOTION": 15.01752397,
    "ECCENTRICITY": 0.00132191,
    "INCLINATION": 36.9612,
    "RA_OF_ASC_NODE": 13.9588,
    "ARG_OF_PERICENTER": 304.8722,
    "MEAN_ANOMALY": 55.0778,
    "EPHEMERIS_TYPE": 0,
    "CLASSIFICATION_TYPE": "U",
    "NORAD_CAT_ID": 44857,
    "ELEMENT_SET_NO": 999,
    "REV_AT_EPOCH": 35967,
    "BSTAR": 0.0002753901,
    "MEAN_MOTION_DOT": 0.00003582,
    "MEAN_MOTION_DDOT": 0
   }
  },
  {
   "norad": 46905,
   "name": "RISAT-2BR2",
   "intl": "2020-081A",
   "group": "sar",
   "gcat": {
    "class": "C",
    "category": "IMG-R",
    "owner": "ISRO",
    "state": "IN"
   },
   "omm": {
    "OBJECT_NAME": "RISAT-2BR2",
    "OBJECT_ID": "2020-081A",
    "EPOCH": "2026-07-02T05:49:23.881728",
    "MEAN_MOTION": 15.01687266,
    "ECCENTRICITY": 0.0012428,
    "INCLINATION": 36.8976,
    "RA_OF_ASC_NODE": 134.8638,
    "ARG_OF_PERICENTER": 280.9521,
    "MEAN_ANOMALY": 78.9822,
    "EPHEMERIS_TYPE": 0,
    "CLASSIFICATION_TYPE": "U",
    "NORAD_CAT_ID": 46905,
    "ELEMENT_SET_NO": 999,
    "REV_AT_EPOCH": 30973,
    "BSTAR": 0.0002104,
    "MEAN_MOTION_DOT": 0.00002713,
    "MEAN_MOTION_DDOT": 0
   }
  },
  {
   "norad": 43641,
   "name": "SAOCOM 1A",
   "intl": "2018-076A",
   "group": "sar",
   "gcat": {
    "class": "C",
    "category": "IMG-R",
    "owner": "CONAE",
    "state": "AR"
   },
   "omm": {
    "OBJECT_NAME": "SAOCOM 1A",
    "OBJECT_ID": "2018-076A",
    "EPOCH": "2026-07-03T16:13:37.261344",
    "MEAN_MOTION": 14.82160905,
    "ECCENTRICITY": 0.00015269,
    "INCLINATION": 97.8879,
    "RA_OF_ASC_NODE": 11.1843,
    "ARG_OF_PERICENTER": 80.9296,
    "MEAN_ANOMALY": 279.209,
    "EPHEMERIS_TYPE": 0,
    "CLASSIFICATION_TYPE": "U",
    "NORAD_CAT_ID": 43641,
    "ELEMENT_SET_NO": 999,
    "REV_AT_EPOCH": 41854,
    "BSTAR": 0.000086409581,
    "MEAN_MOTION_DOT": 0.00000636,
    "MEAN_MOTION_DDOT": 0
   }
  },
  {
   "norad": 46265,
   "name": "SAOCOM 1B",
   "intl": "2020-059A",
   "group": "sar",
   "gcat": {
    "class": "C",
    "category": "IMG-R",
    "owner": "CONAE",
    "state": "AR"
   },
   "omm": {
    "OBJECT_NAME": "SAOCOM 1B",
    "OBJECT_ID": "2020-059A",
    "EPOCH": "2026-07-03T15:21:21.305088",
    "MEAN_MOTION": 14.82150655,
    "ECCENTRICITY": 0.00015877,
    "INCLINATION": 97.8884,
    "RA_OF_ASC_NODE": 10.2442,
    "ARG_OF_PERICENTER": 79.7812,
    "MEAN_ANOMALY": 280.358,
    "EPHEMERIS_TYPE": 0,
    "CLASSIFICATION_TYPE": "U",
    "NORAD_CAT_ID": 46265,
    "ELEMENT_SET_NO": 999,
    "REV_AT_EPOCH": 31592,
    "BSTAR": 0.000012646654,
    "MEAN_MOTION_DOT": 4.8e-7,
    "MEAN_MOTION_DDOT": 0
   }
  },
  {
   "norad": 31797,
   "name": "SAR-LUPE 2",
   "intl": "2007-030A",
   "group": "sar",
   "gcat": {
    "class": "D",
    "category": "IMG-R",
    "owner": "BWB",
    "state": "D"
   },
   "omm": {
    "OBJECT_NAME": "SAR-LUPE 2",
    "OBJECT_ID": "2007-030A",
    "EPOCH": "2026-07-03T14:26:10.318848",
    "MEAN_MOTION": 15.52692613,
    "ECCENTRICITY": 0.00032933,
    "INCLINATION": 98.1066,
    "RA_OF_ASC_NODE": 291.1001,
    "ARG_OF_PERICENTER": 224.1014,
    "MEAN_ANOMALY": 135.9975,
    "EPHEMERIS_TYPE": 0,
    "CLASSIFICATION_TYPE": "U",
    "NORAD_CAT_ID": 31797,
    "ELEMENT_SET_NO": 999,
    "REV_AT_EPOCH": 5948,
    "BSTAR": 0.00074179179,
    "MEAN_MOTION_DOT": 0.00045845,
    "MEAN_MOTION_DDOT": 0
   }
  },
  {
   "norad": 39086,
   "name": "SARAL",
   "intl": "2013-009A",
   "group": "resource",
   "gcat": {
    "class": "C",
    "category": "SCI",
    "owner": "ISRO/CNES",
    "state": "IN"
   },
   "omm": {
    "OBJECT_NAME": "SARAL",
    "OBJECT_ID": "2013-009A",
    "EPOCH": "2026-07-02T19:44:34.487232",
    "MEAN_MOTION": 14.32893194,
    "ECCENTRICITY": 0.00009571,
    "INCLINATION": 98.5552,
    "RA_OF_ASC_NODE": 10.192,
    "ARG_OF_PERICENTER": 206.8269,
    "MEAN_ANOMALY": 153.2866,
    "EPHEMERIS_TYPE": 0,
    "CLASSIFICATION_TYPE": "U",
    "NORAD_CAT_ID": 39086,
    "ELEMENT_SET_NO": 999,
    "REV_AT_EPOCH": 69784,
    "BSTAR": -0.000004226029,
    "MEAN_MOTION_DOT": -5.5e-7,
    "MEAN_MOTION_DDOT": 0
   }
  },
  {
   "norad": 43831,
   "name": "SAUDISAT 5A",
   "intl": "2018-102A",
   "group": "resource",
   "gcat": {
    "class": "C",
    "category": "TECH",
    "owner": "KACST",
    "state": "SA"
   },
   "omm": {
    "OBJECT_NAME": "SAUDISAT 5A",
    "OBJECT_ID": "2018-102A",
    "EPOCH": "2026-07-03T14:25:05.240640",
    "MEAN_MOTION": 15.28220168,
    "ECCENTRICITY": 0.00111906,
    "INCLINATION": 97.3055,
    "RA_OF_ASC_NODE": 245.8663,
    "ARG_OF_PERICENTER": 79.5341,
    "MEAN_ANOMALY": 280.7159,
    "EPHEMERIS_TYPE": 0,
    "CLASSIFICATION_TYPE": "U",
    "NORAD_CAT_ID": 43831,
    "ELEMENT_SET_NO": 999,
    "REV_AT_EPOCH": 41818,
    "BSTAR": 0.00022564877,
    "MEAN_MOTION_DOT": 0.00006142,
    "MEAN_MOTION_DDOT": 0
   }
  },
  {
   "norad": 43833,
   "name": "SAUDISAT 5B",
   "intl": "2018-102C",
   "group": "resource",
   "gcat": {
    "class": "C",
    "category": "TECH",
    "owner": "KACST",
    "state": "SA"
   },
   "omm": {
    "OBJECT_NAME": "SAUDISAT 5B",
    "OBJECT_ID": "2018-102C",
    "EPOCH": "2026-07-03T16:22:35.359680",
    "MEAN_MOTION": 15.28469608,
    "ECCENTRICITY": 0.00119201,
    "INCLINATION": 97.3164,
    "RA_OF_ASC_NODE": 249.046,
    "ARG_OF_PERICENTER": 80.9742,
    "MEAN_ANOMALY": 279.2846,
    "EPHEMERIS_TYPE": 0,
    "CLASSIFICATION_TYPE": "U",
    "NORAD_CAT_ID": 43833,
    "ELEMENT_SET_NO": 999,
    "REV_AT_EPOCH": 41831,
    "BSTAR": 0.00021706034,
    "MEAN_MOTION_DOT": 0.00005952,
    "MEAN_MOTION_DDOT": 0
   }
  }
 ]
}
